BEIDOU-2 G8             
1 44231U 19027A   26168.51850487 -.00000253  00000+0  00000+0 0  9993
2 44231   1.6589  74.4899 0010194 281.8039 240.6804  1.00270638 26089
COSMOS 2534 [GLONASS-M] 
1 44299U 19030A   26167.15041896  .00000077  00000+0  00000+0 0  9999
2 44299  64.3685 192.6516 0013389 275.0852 148.6554  2.13102184 54908
BEIDOU-3 IGSO-2         
1 44337U 19035A   26165.62361995 -.00000071  00000+0  00000+0 0  9997
2 44337  55.2456 158.8849 0039904 216.4592 231.8306  1.00267330 25649
NAVSTAR 78 (USA 293)    
1 44506U 19056A   26167.65264251 -.00000085  00000+0  00000+0 0  9995
2 44506  55.6372 331.1634 0062120 197.6135 163.8275  2.00569450 50067
BEIDOU-3 M24            
1 44542U 19061A   26168.24244619  .00000060  00000+0  00000+0 0  9995
2 44542  54.3962 182.7262 0008313 358.7038   1.3256  1.86229098 45794
BEIDOU-3 M23            
1 44543U 19061B   26167.55603885  .00000067  00000+0  00000+0 0  9990
2 44543  54.3947 182.7174 0005670 338.0060 193.4228  1.86227264 45783
EUTELSAT 5 WEST B       
1 44624U 19067A   26167.91989407 -.00000045  00000+0  00000+0 0  9990
2 44624   0.0638 344.0208 0002914  99.2164 148.1330  1.00271926 24438
BEIDOU-3 M22            
1 44793U 19078A   26167.54530678 -.00000069  00000+0  00000+0 0  9996
2 44793  53.9366 299.8507 0006347  50.5966 309.4493  1.86227179 44634
BEIDOU-3 M21            
1 44794U 19078B   26167.14826715 -.00000069  00000+0  00000+0 0  9993
2 44794  53.9102 299.8261 0004221  48.5943 311.4305  1.86227629 44636
COSMOS 2544 [GLONASS-M] 
1 44850U 19088A   26168.02937791 -.00000019  00000+0  00000+0 0  9997
2 44850  65.5654  73.7363 0013152 258.7271 101.1598  2.13102676 50713
BEIDOU-3 M19            
1 44864U 19090A   26165.52330763 -.00000053  00000+0  00000+0 0  9991
2 44864  56.5562  62.8792 0017922 297.9457 249.9520  1.86231333 44183
BEIDOU-3 M20            
1 44865U 19090B   26166.44845134 -.00000051  00000+0  00000+0 0  9995
2 44865  56.5591  62.8831 0015700 311.8905 225.8558  1.86231059 44185
BEIDOU-3 G2             
1 45344U 20017A   26167.84333128 -.00000145  00000+0  00000+0 0  9993
2 45344   2.8632  47.3361 0002022  32.3154 209.1334  1.00271955 23255
COSMOS 2545 [GLONASS-M] 
1 45358U 20018A   26167.28584185 -.00000055  00000+0  00000+0 0  9998
2 45358  64.3556 312.4510 0008397 230.0424 129.8687  2.13102431 48644
BEIDOU-3 G3             
1 45807U 20040A   26168.64958084 -.00000359  00000+0  00000+0 0  9993
2 45807   2.4485  67.4438 0002358 335.7201 207.0744  1.00266120 22073
NAVSTAR 79 (USA 304)    
1 45854U 20041A   26162.56161249 -.00000063  00000+0  00000+0 0  9992
2 45854  56.6657  29.1622 0063604 204.6361  19.3768  2.00558626 43922
GALAXY 30 (G-30)        
1 46114U 20056C   26168.46842113  .00000032  00000+0  00000+0 0  9994
2 46114   0.0129  49.2349 0002124  37.4194 222.6923  1.00271406 21299
COSMOS 2547 [GLONASS-K] 
1 46805U 20075A   26163.72129992  .00000119  00000+0  00000+0 0  9995
2 46805  64.5993 192.6246 0009245 239.6069 120.3788  2.13100258 43813
NAVSTAR 80 (USA 309)    
1 46826U 20078A   26168.26194632  .00000042  00000+0  00000+0 0  9993
2 46826  53.9796 210.7754 0073541 207.2463 148.9030  2.00564788 41502
NAVSTAR 81 (USA 319)    
1 48859U 21054A   26167.95784770 -.00000087  00000+0  00000+0 0  9999
2 48859  55.1744 332.4683 0025342 228.5515  94.2637  2.00568788 36740
QZS-1R (MICHIBIKI-1R)   
1 49336U 21096A   26167.63839491 -.00000283  00000+0  00000+0 0  9990
2 49336  37.4612  79.5914 0754866 271.7927 277.3771  1.00255427 17004
GSAT0223 (GALILEO 27)   
1 49809U 21116A   26167.98647617 -.00000088  00000+0  00000+0 0  9996
2 49809  57.1606 341.6797 0001577 187.5873 169.0547  1.70475742 28170
GSAT0224 (GALILEO 28)   
1 49810U 21116B   26166.62800549 -.00000083  00000+0  00000+0 0  9998
2 49810  57.1620 341.7155 0001119 160.0278 195.5159  1.70475771 28179
COSMOS 2557 [GLONASS-K] 
1 52984U 22075A   26163.88559135 -.00000051  00000+0  00000+0 0  9991
2 52984  64.3011 314.6375 0010222 275.3123  84.5589  2.13102288 30621
COSMOS 2559 [GLONASS-K] 
1 54031U 22130A   26167.92856249 -.00000056  00000+0  00000+0 0  9998
2 54031  64.2714 314.5777 0012577 178.1381 181.8528  2.13101570 28681
COSMOS 2564 [GLONASS-M] 
1 54377U 22161A   26168.24110211  .00000064  00000+0  00000+0 0  9991
2 54377  64.7416 192.7100 0012193 224.7790 135.1776  2.13101998 27635
NAVSTAR 82 (USA 343)    
1 55268U 23009A   26167.62160980  .00000044  00000+0  00000+0 0  9990
2 55268  55.1227 148.5411 0006250 321.9869 156.3274  2.00571344 25231
BEIDOU-3 G4             
1 56564U 23066A   26168.66176656 -.00000286  00000+0  00000+0 0  9994
2 56564   0.4859 331.6307 0004347 180.7324 131.8183  1.00273532 11392
NVS-01 (IRNSS-1J)       
1 56759U 23076A   26167.85312466 -.00000338  00000+0  00000+0 0  9990
2 56759   2.1664 244.3634 0003178  36.2189  61.1146  1.00264842 11117
COSMOS 2569 [GLONASS-K2]
1 57517U 23114A   26166.37639921 -.00000024  00000+0  00000+0 0  9992
2 57517  65.3011  72.6815 0010734 296.8932  63.0268  2.13103652 22222
BEIDOU-3 M28            
1 58654U 23207A   26164.00359830 -.00000057  00000+0  00000+0 0  9990
2 58654  55.7492  62.4443 0003374 346.0621  13.9544  1.86229633 16760
